NORAD_CAT_ID,OBJECT_NAME,OBJECT_TYPE,EPOCH,MEAN_MOTION,ECCENTRICITY,INCLINATION,RA_OF_ASC_NODE,ARG_OF_PERICENTER,MEAN_ANOMALY,BSTAR,MEAN_MOTION_DOT,MEAN_MOTION_DDOT,TLE_LINE0,TLE_LINE1,TLE_LINE2,SEMIMAJOR_AXIS,PERIOD,APOGEE,PERIGEE,DECAYED
53775.0,STARLINK-4722,PAYLOAD,2022-10-23 08:00:01,15.73260591,0.0001666999999999,53.216,57.8996,42.9865,246.3122,0.00012481,0.00016976,0.0,0 STARLINK-4722,1 53775U 22111C   22296.33335648  .00016976  00000-0  12481-3 0  9998,2 53775  53.2160  57.8996 0001667  42.9865 246.3122 15.73260591  6582,6727.722,91.53,350.709,348.466,0.0
53775.0,STARLINK-4722,PAYLOAD,2022-10-23 14:00:01,15.73305591,0.0001533,53.2166,56.6659,33.6117,232.3156,-0.0019492,-0.00266896,0.0,0 STARLINK-4722,1 53775U 22111C   22296.58334491 -.00266896  00000-0 -19492-2 0  9998,2 53775  53.2166  56.6659 0001533  33.6117 232.3156 15.73305591  1307,6727.594,91.527,350.49,348.42800000000005,0.0
53775.0,STARLINK-4722,PAYLOAD,2022-10-23 22:00:00,15.73089757,0.0001721999999999,53.2166,55.017,28.8144,326.0795,-0.0047523999999999,-0.006179,0.0,0 STARLINK-4722,1 53775U 22111C   22296.91667824 -.00617900  00000-0 -47524-2 0  9997,2 53775  53.2166  55.0170 0001722  28.8144 326.0795 15.73089757  6672,6728.209,91.54,351.233,348.916,0.0
53775.0,STARLINK-4722,PAYLOAD,2022-10-24 06:00:00,15.72700631,0.0001636999999999,53.2173,53.3671,31.7345,51.7014,-0.0091524,-0.0112327,0.0,0 STARLINK-4722,1 53775U 22111C   22297.25001157 -.01123270  00000-0 -91524-2 0  9998,2 53775  53.2173  53.3671 0001637  31.7345  51.7014 15.72700631  6731,6729.319,91.562,352.286,350.083,0.0
53775.0,STARLINK-4722,PAYLOAD,2022-10-24 14:00:01,15.71887333,0.0001563,53.2172,51.7213,43.2088,128.0555,-0.0094722,-0.01122691,0.0,0 STARLINK-4722,1 53775U 22111C   22297.58334491 -.01122691  00000-0 -94722-2 0  9993,2 53775  53.2172  51.7213 0001563  43.2088 128.0555 15.71887333  1304,6731.64,91.61,354.557,352.45300000000015,0.0
53775.0,STARLINK-4722,PAYLOAD,2022-10-24 22:00:00,15.71106148,0.0001704,53.2168,50.0758,23.0803,235.0208,-0.010221,-0.01186141,0.0,0 STARLINK-4722,1 53775U 22111C   22297.91667824 -.01186141  00000-0 -10221-1 0  9990,2 53775  53.2168  50.0758 0001704  23.0803 235.0208 15.71106148  1305,6733.871,91.655,356.884,354.589,0.0
53775.0,STARLINK-4722,PAYLOAD,2022-10-25 06:00:00,15.702921900000002,0.0006282999999999,53.2173,48.4309,270.9735,73.003,-0.010575,-0.01168803,0.0,0 STARLINK-4722,1 53775U 22111C   22298.25001157 -.01168803  00000-0 -10575-1 0  9996,2 53775  53.2173  48.4309 0006283 270.9735  73.0030 15.70292190  6881,6736.198,91.703,362.296,353.831,0.0
53775.0,STARLINK-4722,PAYLOAD,2022-10-25 14:00:01,15.69465356,0.0001041,53.2175,46.7912,342.9158,85.9618,-0.010764,-0.01167481,0.0,0 STARLINK-4722,1 53775U 22111C   22298.58334491 -.01167481  00000-0 -10764-1 0  9993,2 53775  53.2175  46.7912 0001041 342.9158  85.9618 15.69465356  6945,6738.564,91.751,361.13,359.727,0.0
53775.0,STARLINK-4722,PAYLOAD,2022-10-25 22:00:01,15.686545,0.0001521999999999,53.2171,45.1514,37.9266,114.9336,-0.011169,-0.01171045,0.0,0 STARLINK-4722,1 53775U 22111C   22298.91668981 -.01171045  00000-0 -11169-1 0  9995,2 53775  53.2171  45.1514 0001522  37.9266 114.9336 15.68654500  1302,6740.886,91.798,363.777,361.725,0.0
53775.0,STARLINK-4722,PAYLOAD,2022-10-26 14:00:01,15.67008273,0.0001174,53.2174,41.8791,58.0416,259.6639,-0.011647,-0.01143805,0.0,0 STARLINK-4722,1 53775U 22111C   22299.58334491 -.01143805  00000-0 -11647-1 0  9999,2 53775  53.2174  41.8791 0001174  58.0416 259.6639 15.67008273  7093,6745.606,91.895,368.263,366.679,0.0
53775.0,STARLINK-4722,PAYLOAD,2022-10-26 22:00:00,15.66190767,0.0001155,53.2172,40.2455,53.4776,345.2145,-0.0119709999999999,-0.01137747,0.0,0 STARLINK-4722,1 53775U 22111C   22299.91667824 -.01137747  00000-0 -11971-1 0  9993,2 53775  53.2172  40.2455 0001155  53.4776 345.2145 15.66190767  1309,6747.953,91.943,370.598,369.039,0.0
53775.0,STARLINK-4722,PAYLOAD,2022-10-27 08:00:01,15.65186231,0.0001429,53.2171,38.2049,45.3222,183.2196,-0.012651,-0.01153062,0.0,0 STARLINK-4722,1 53775U 22111C   22300.33334491 -.01153062  00000-0 -12651-1 0  9997,2 53775  53.2171  38.2049 0001429  45.3222 183.2196 15.65186231  7216,6750.84,92.002,373.67,371.741,0.0
53775.0,STARLINK-4722,PAYLOAD,2022-10-27 14:00:01,15.64585495,0.0001456,53.2175,36.9847,54.988,142.7941,-0.0131349999999999,-0.01167171,0.0,0 STARLINK-4722,1 53775U 22111C   22300.58335648 -.01167171  00000-0 -13135-1 0  9993,2 53775  53.2175  36.9847 0001456  54.9880 142.7941 15.64585495  1303,6752.568,92.037,375.416,373.45,0.0
53775.0,STARLINK-4722,PAYLOAD,2022-10-27 22:00:00,15.63755767,0.0001328,53.2172,35.3567,42.4779,233.2987,-0.013312,-0.01146493,0.0,0 STARLINK-4722,1 53775U 22111C   22300.91667824 -.01146493  00000-0 -13312-1 0  9995,2 53775  53.2172  35.3567 0001328  42.4779 233.2987 15.63755767  1305,6754.956999999999,92.086,377.719,375.924,0.0
53775.0,STARLINK-4722,PAYLOAD,2022-10-28 08:00:01,15.62730286,0.0001773,53.2178,33.3245,32.7236,69.3106,-0.013685,-0.01133277,0.0,0 STARLINK-4722,1 53775U 22111C   22301.33335648 -.01133277  00000-0 -13685-1 0  9997,2 53775  53.2178  33.3245 0001773  32.7236  69.3106 15.62730286  7378,6757.911,92.146,380.975,378.578,0.0
53775.0,STARLINK-4722,PAYLOAD,2022-10-28 14:00:01,15.62124768,0.0001426,53.2177,32.1084,45.2048,23.8063,-0.014111,-0.01140209,0.0,0 STARLINK-4722,1 53775U 22111C   22301.58335648 -.01140209  00000-0 -14111-1 0  9992,2 53775  53.2177  32.1084 0001426  45.2048  23.8063 15.62124768  1306,6759.658,92.182,382.486,380.559,0.0
53775.0,STARLINK-4722,PAYLOAD,2022-10-28 22:00:01,15.61313399,0.0001807,53.2171,30.4858,33.5603,110.568,-0.014609,-0.01143418,0.0,0 STARLINK-4722,1 53775U 22111C   22301.91668981 -.01143418  00000-0 -14609-1 0  9995,2 53775  53.2171  30.4858 0001807  33.5603 110.5680 15.61313399  1308,6761.999,92.23,385.086,382.642,0.0
53775.0,STARLINK-4722,PAYLOAD,2022-10-29 08:00:01,15.60291329,0.0001661,53.2175,28.4613,29.9396,296.6476,-0.015091,-0.0113595,0.0,0 STARLINK-4722,1 53775U 22111C   22302.33334491 -.01135950  00000-0 -15091-1 0  9996,2 53775  53.2175  28.4613 0001661  29.9396 296.6476 15.60291329  7520,6764.9519999999975,92.29,387.941,385.693,0.0
53775.0,STARLINK-4722,PAYLOAD,2022-10-29 12:00:00,15.59928801,0.0001629999999999,53.2172,27.6533,46.707,136.4364,-0.0161289999999999,-0.01191124,0.0,0 STARLINK-4722,1 53775U 22111C   22302.50001157 -.01191124  00000-0 -16129-1 0  9993,2 53775  53.2172  27.6533 0001630  46.7070 136.4364 15.59928801  1308,6766.0,92.312,388.968,386.762,0.0
53775.0,STARLINK-4722,PAYLOAD,2022-10-29 22:00:01,15.58866077,0.0001506,53.2172,25.6329,31.5506,332.0659,-0.015916,-0.01134341,0.0,0 STARLINK-4722,1 53775U 22111C   22302.91668981 -.01134341  00000-0 -15916-1 0  9993,2 53775  53.2172  25.6329 0001506  31.5506 332.0659 15.58866077  1303,6769.075,92.375,391.959,389.92,0.0
53775.0,STARLINK-4722,PAYLOAD,2022-10-30 14:00:01,15.57238051,0.0001699,53.2176,22.4086,41.9755,103.0095,-0.016887,-0.01131789,0.0,0 STARLINK-4722,1 53775U 22111C   22303.58334491 -.01131789  00000-0 -16887-1 0  9994,2 53775  53.2176  22.4086 0001699  41.9755 103.0095 15.57238051  1300,6773.792,92.471,396.8080000000001,394.506,0.0
53775.0,STARLINK-4722,PAYLOAD,2022-10-30 22:00:01,15.56400318,0.0001791,53.2174,20.7974,36.0102,178.3016,-0.016859,-0.01098339,0.0,0 STARLINK-4722,1 53775U 22111C   22303.91668981 -.01098339  00000-0 -16859-1 0  9997,2 53775  53.2174  20.7974 0001791  36.0102 178.3016 15.56400318  1303,6776.222,92.521,399.301,396.874,0.0
53775.0,STARLINK-4722,PAYLOAD,2022-10-31 14:00:01,15.5480829,0.0001305,53.2176,17.5852,52.9889,296.8086,-0.018779,-0.01147577,0.0,0 STARLINK-4722,1 53775U 22111C   22304.58334491 -.01147577  00000-0 -18779-1 0  9999,2 53775  53.2176  17.5852 0001305  52.9889 296.8086 15.54808290  1306,6780.847,92.616,403.597,401.827,0.0
53775.0,STARLINK-4722,PAYLOAD,2022-10-31 22:00:01,15.53981847,0.0001519,53.2173,15.9798,38.6184,17.5677,-0.019029,-0.01129897,0.0,0 STARLINK-4722,1 53775U 22111C   22304.91668981 -.01129897  00000-0 -19029-1 0  9994,2 53775  53.2173  15.9798 0001519  38.6184  17.5677 15.53981847  7938,6783.251,92.665,406.146,404.086,0.0
53775.0,STARLINK-4722,PAYLOAD,2022-11-01 14:00:01,15.52353284,0.0001559,53.2174,12.7795,54.8352,130.9852,-0.020127,-0.01126444,0.0,0 STARLINK-4722,1 53775U 22111C   22305.58334491 -.01126444  00000-0 -20127-1 0  9990,2 53775  53.2174  12.7795 0001559  54.8352 130.9852 15.52353284  8036,6787.994000000002,92.762,410.917,408.801,0.0
53775.0,STARLINK-4722,PAYLOAD,2022-11-01 22:00:00,15.515491699999998,0.0001414,53.2173,11.1799,47.4016,201.7996,-0.021036,-0.01141828,0.0,0 STARLINK-4722,1 53775U 22111C   22305.91667824 -.01141828  00000-0 -21036-1 0  9999,2 53775  53.2173  11.1799 0001414  47.4016 201.7996 15.51549170  1306,6790.339,92.81,413.165,411.244,0.0
53775.0,STARLINK-4722,PAYLOAD,2022-11-02 14:00:01,15.49933494,0.0001654,53.2175,7.9914,52.2531,320.839,-0.0014049,-0.00079521,0.0,0 STARLINK-4722,1 53775U 22111C   22306.58334491 -.00079521  00000-0 -14049-2 0  9990,2 53775  53.2175   7.9914 0001654  52.2531 320.8390 15.49933494  1306,6795.057,92.907,418.046,415.799,0.0
53775.0,STARLINK-4722,PAYLOAD,2022-11-02 22:00:00,15.49885034,0.0001323,53.2176,6.3965,60.3031,13.7266,1.2797e-05,2.75e-06,0.0,0 STARLINK-4722,1 53775U 22111C   22306.91667824  .00000275  00000-0  12797-4 0  9994,2 53775  53.2176   6.3965 0001323  60.3031  13.7266 15.49885034  1300,6795.199000000001,92.91,417.963,416.165,0.0
53775.0,STARLINK-4722,PAYLOAD,2022-11-03 08:00:01,15.49919362,0.0001607,53.2169,4.4047,46.7812,193.4671,-1.8358e-05,-1.495e-05,0.0,0 STARLINK-4722,1 53775U 22111C   22307.33334491 -.00001495  00000-0 -18358-4 0  9998,2 53775  53.2169   4.4047 0001607  46.7812 193.4671 15.49919362  8307,6795.099,92.908,418.056,415.872,0.0
